[{"OBJECT_NAME":"LOGSATS","OBJECT_ID":"2025-009CJ","EPOCH":"2026-03-09T17:25:39.487008","MEAN_MOTION":15.72310294,"ECCENTRICITY":0.00053927,"INCLINATION":97.3907,"RA_OF_ASC_NODE":158.8419,"ARG_OF_PERICENTER":263.6729,"MEAN_ANOMALY":96.392,"EPHEMERIS_TYPE":0,"CLASSIFICATION_TYPE":"U","NORAD_CAT_ID":62689,"ELEMENT_SET_NO":999,"REV_AT_EPOCH":6421,"BSTAR":0.0019540727,"MEAN_MOTION_DOT":0.00266017,"MEAN_MOTION_DDOT":0},{"OBJECT_NAME":"STARLINK-36811","OBJECT_ID":"2026-032M","EPOCH":"2026-03-09T22:00:01.999584","MEAN_MOTION":15.7513277,"ECCENTRICITY":0.00015975,"INCLINATION":97.2849,"RA_OF_ASC_NODE":255.486,"ARG_OF_PERICENTER":96.6375,"MEAN_ANOMALY":268.0903,"EPHEMERIS_TYPE":0,"CLASSIFICATION_TYPE":"U","NORAD_CAT_ID":67808,"ELEMENT_SET_NO":999,"REV_AT_EPOCH":481,"BSTAR":0.0010691942,"MEAN_MOTION_DOT":0.00162008,"MEAN_MOTION_DDOT":0}]
